STARLINK-2736           
1 48640U 21044C   24326.31887829  .00003442  00000+0  24980-3 0  9994
2 48640  53.0526  81.9428 0000984 103.1765 256.9333 15.06406052192429
STARLINK-2754           
1 48641U 21044D   24326.33128065  .00001605  00000+0  12660-3 0  9998
2 48641  53.0517  86.6025 0001041  92.2376 267.8732 15.06404770193268
STARLINK-2646           
1 48642U 21044E   24325.74889949  .00005522  00000+0  38910-3 0  9996
2 48642  53.0540  89.2323 0001324  79.7004 280.4134 15.06419138192278
STARLINK-2704           
1 48643U 21044F   24326.32664812  .00012885  00000+0  88145-3 0  9997
2 48643  53.0543  86.6099 0001077  97.5094 262.6017 15.06437356193269
STARLINK-2695           
1 48644U 21044G   24326.32392559  .00003020  00000+0  22150-3 0  9999
2 48644  53.0548  86.6399 0001251  90.4597 269.6535 15.06403817193203
STARLINK-2733           
1 48645U 21044H   24326.32021359  .00005868  00000+0  41250-3 0  9991
2 48645  53.0526  86.6579 0001709  45.0463 315.0665 15.06401092192365
STARLINK-2732           
1 48646U 21044J   24325.78574977  .00004904  00000+0  34765-3 0  9993
2 48646  53.0535  89.0475 0001242  78.3560 281.7568 15.06421653192284
STARLINK-2691           
1 48647U 21044K   24326.31261954  .00010677  00000+0  73219-3 0  9993
2 48647  53.0529  86.6856 0001045  79.1216 280.9891 15.06521399193269
STARLINK-2521           
1 48648U 21044L   24324.60260992  .00000814  00000+0  73559-4 0  9995
2 48648  53.0537  94.5314 0001200  85.5941 274.5185 15.06396760192104
STARLINK-2673           
1 48649U 21044M   24326.37550308 -.00000520  00000+0 -15975-4 0  9999
2 48649  53.0541  86.4080 0002958 112.2993 247.8310 15.06403621193206
STARLINK-2672           
1 48650U 21044N   24326.37182030 -.00000840  00000+0 -37520-4 0  9999
2 48650  53.0516  86.4170 0000981 103.0409 257.0690 15.06402664193204
STARLINK-2731           
1 48651U 21044P   24326.36812981 -.00003665  00000+0 -22726-3 0  9993
2 48651  53.0542  86.4381 0001550 112.0660 248.0494 15.06396153193207
STARLINK-2727           
1 48652U 21044Q   24326.36445079 -.00001232  00000+0 -63824-4 0  9997
2 48652  53.0535  86.4557 0001430 105.7609 254.3537 15.06408965193207
STARLINK-2720           
1 48653U 21044R   24326.36077615  .00006782  00000+0  47385-3 0  9991
2 48653  53.0552  86.4655 0001415 131.4116 228.6994 15.06391595193209
STARLINK-2651           
1 48654U 21044S   24326.35707554  .00000774  00000+0  70844-4 0  9995
2 48654  53.0505  86.4848 0002783 106.9257 253.2037 15.06405700193266
STARLINK-2657           
1 48655U 21044T   24326.35339751 -.00001851  00000+0 -10539-3 0  9999
2 48655  53.0526  86.5023 0001745 107.7500 252.3679 15.06395247193203
STARLINK-2701           
1 48656U 21044U   24326.34970732  .00000180  00000+0  31024-4 0  9994
2 48656  53.0512  86.5229 0003962  99.8212 260.3224 15.06399660193209
STARLINK-2734           
1 48657U 21044V   24325.38302430  .00003826  00000+0  27569-3 0  9990
2 48657  53.0536  90.5068 0000964  80.4177 279.6921 15.06387793192229
STARLINK-2647           
1 48658U 21044W   24326.34233579 -.00004258  00000+0 -26712-3 0  9996
2 48658  53.0534  86.5551 0001186  66.3217 293.7896 15.06401960193261
STARLINK-2717           
1 48659U 21044X   24325.74152181  .00012158  00000+0  83284-3 0  9992
2 48659  53.0534  89.2533 0001515  82.0965 278.0196 15.06437115192273
STARLINK-2688           
1 48660U 21044Y   24326.66667824  .01213800  00000+0  64543-1 0  9994
2 48660  53.0535  85.0453 0001833  74.9671 312.9546 15.12149565193250
STARLINK-2726           
1 48662U 21044AA  24325.46968605  .00003688  00000+0  26616-3 0  9995
2 48662  53.0538  80.4725 0001336  97.5327 262.5813 15.06424354193211
STARLINK-2667           
1 48663U 21044AB  24325.46600493  .00012395  00000+0  84891-3 0  9998
2 48663  53.0533  80.4892 0001387  91.3784 268.7364 15.06427559193216
STARLINK-2709           
1 48664U 21044AC  24326.32482726  .00002167  00000+0  16422-3 0  9993
2 48664  53.0530  76.6321 0000901  79.1225 280.9865 15.06416537193400
STARLINK-2666           
1 48666U 21044AE  24325.28914777  .00000541  00000+0  55219-4 0  9997
2 48666  53.0547  81.7516 0001030 101.6307 258.4798 15.06406525192331
STARLINK-2735           
1 48667U 21044AF  24326.32114302 -.00000725  00000+0 -29757-4 0  9994
2 48667  53.0545  76.6510 0001262  91.2225 268.8909 15.06405378193343
STARLINK-2738           
1 48668U 21044AG  24325.52128604  .00012123  00000+0  83067-3 0  9992
2 48668  53.0523  80.2427 0001316  89.2819 270.8321 15.06430745193284
STARLINK-2707           
1 48669U 21044AH  24325.51766517  .00040861  00000+0  27525-2 0  9999
2 48669  53.0547  80.2602 0002305  81.3316 278.7934 15.06313783193212
STARLINK-2763           
1 48670U 21044AJ  24326.31008235  .00002063  00000+0  15735-3 0  9999
2 48670  53.0536  76.6954 0000933 114.7044 245.4042 15.06404321193338
STARLINK-2745           
1 48671U 21044AK  24326.33592936  .00000949  00000+0  82560-4 0  9990
2 48671  53.0539  76.8893 0000869  11.0288 349.0720 15.06397368193339
STARLINK-2705           
1 48672U 21044AL  24325.30750450  .00006442  00000+0  45083-3 0  9996
2 48672  53.0548  81.1975 0001318  86.2450 273.8689 15.06413351192344
STARLINK-2711           
1 48673U 21044AM  24324.64037201  .00002089  00000+0  15906-3 0  9999
2 48673  53.0546  84.1982 0001015  85.2918 274.8187 15.06404141192246
STARLINK-2712           
1 48674U 21044AN  24325.31120938  .00004128  00000+0  29574-3 0  9997
2 48674  53.0552  81.2956 0001042  67.4757 292.6342 15.06411777192341
STARLINK-2737           
1 48675U 21044AP  24326.29165242  .00001250  00000+0  10277-3 0  9996
2 48675  53.0518  76.7772 0001479 140.3247 219.7851 15.06406646193332
STARLINK-2746           
1 48676U 21044AQ  24325.75718854  .00010893  00000+0  74850-3 0  9990
2 48676  53.0524  79.1832 0002351 104.9864 255.1385 15.06427740192417
STARLINK-2615           
1 48678U 21044AS  24326.34693968  .00000068  00000+0  23541-4 0  9991
2 48678  53.0514  76.5287 0003503 118.2814 241.8529 15.06402075193345
STARLINK-2648           
1 48679U 21044AT  24326.34325932  .00003214  00000+0  23458-3 0  9997
2 48679  53.0541  76.5482 0002034 315.5892  44.4934 15.06394790193340
STARLINK-2649           
1 48680U 21044AU  24326.33957110 -.00002286  00000+0 -13445-3 0  9992
2 48680  53.0505  76.5605 0005031 107.0650 253.0891 15.06402513193405
STARLINK-2725           
1 48681U 21044AV  24325.47616554  .00009070  00000+0  62634-3 0  9991
2 48681  53.0535  50.6842 0001214  90.0806 270.0322 15.06439744193682
STARLINK-2743           
1 48682U 21044AW  24325.47339460  .00015850  00000+0  10770-2 0  9996
2 48682  53.0544  40.6189 0001193 101.7242 258.3881 15.06522809193769
STARLINK-2756           
1 48683U 21044AX  24326.75608518  .00009651  00000+0  66615-3 0  9994
2 48683  53.0544  34.7103 0001387  92.4574 267.6574 15.06385877193965
STARLINK-2741           
1 48684U 21044AY  24325.51809897  .00002831  00000+0  20873-3 0  9990
2 48684  53.0537  55.6131 0001445  91.2090 268.9065 15.06420680193620
STARLINK-2751           
1 48685U 21044AZ  24325.46600959  .00007036  00000+0  49030-3 0  9991
2 48685  53.0541  40.5380 0001404  69.4478 290.6662 15.06434061193776
STARLINK-2629           
1 48686U 21044BA  24325.39370556  .00026707  00000+0  18024-2 0  9995
2 48686  53.0538  46.0960 0001447  70.9530 289.1615 15.06454076192847
STARLINK-2627           
1 48687U 21044BB  24326.16497004  .00015485  00000+0  10557-2 0  9994
2 48687  53.0535  32.3542 0003335 311.6585  48.4118 15.06415807193105
STARLINK-2742           
1 48688U 21044BC  24325.43881596  .00009551  00000+0  65850-3 0  9991
2 48688  53.0551  35.6155 0001620  97.5022 262.6152 15.06441576193831
STARLINK-2617           
1 48689U 21044BD  24326.91667824  .00682178  00000+0  36731-1 0  9998
2 48689  53.0541  33.8985 0001282  84.5598  13.1827 15.11932575193984
STARLINK-2740           
1 48690U 21044BE  24326.24651115  .00007211  00000+0  50243-3 0  9997
2 48690  53.0534  46.9861 0001375 101.8859 258.2284 15.06405056193805
STARLINK-2750           
1 48691U 21044BF  24326.21933694  .00005152  00000+0  36440-3 0  9995
2 48691  53.0512  42.1101 0003929  99.5308 260.6125 15.06414207193816
STARLINK-2752           
1 48692U 21044BG  24325.47477017  .00026663  00000+0  17993-2 0  9996
2 48692  53.0543  45.5763 0001384  86.1815 273.9333 15.06457990193702
STARLINK-2618           
1 48693U 21044BH  24326.74316329  .00010891  00000+0  74894-3 0  9996
2 48693  53.0528  44.7545 0001241  78.0000 282.1128 15.06399219193829
STARLINK-2748           
1 48694U 21044BJ  24325.51711702  .00019331  00000+0  13113-2 0  9999
2 48694  53.0524  55.2530 0001264  82.9425 277.1707 15.06450706193564
STARLINK-2616           
1 48695U 21044BK  24326.53542864 -.00003949  00000+0 -24653-3 0  9996
2 48695  53.0547  50.7339 0001028 100.1114 259.9991 15.06380224193787
STARLINK-2753           
1 48696U 21044BL  24325.46415912  .00012434  00000+0  85127-3 0  9991
2 48696  53.0529  60.5441 0001261  86.7761 273.3372 15.06438281193495
STARLINK-3004           
1 48880U 21059B   24326.32379012 -.00002477  00000+0 -18844-3 0  9998
2 48880  97.6560  88.4177 0000357  27.4280 332.6963 15.01245339187771
STARLINK-3005           
1 48881U 21059C   24326.31711399  .00000292  00000+0  27347-4 0  9996
2 48881  97.6582  88.3611 0002746 239.8912 120.2040 15.01261189187782
STARLINK-3096           
1 49131U 21082B   24325.56332377  .00000492  00000+0  49047-4 0  9995
2 49131  70.0014   9.8876 0002955 269.1947  90.8874 14.98333552175944
STARLINK-3090           
1 49132U 21082C   24325.46798699  .00007320  00000+0  62063-3 0  9997
2 49132  70.0015  50.1599 0002878 273.4985  86.5845 14.98329173174944
STARLINK-3077           
1 49133U 21082D   24325.39271189  .00000364  00000+0  38315-4 0  9995
2 49133  69.9999  50.3270 0003045 266.7853  93.2957 14.98336207174931
